[{"OBJECT_NAME":"GRUS-1E","OBJECT_ID":"2021-022D","EPOCH":"2026-03-09T21:59:56.793984","MEAN_MOTION":14.99580708,"ECCENTRICITY":0.00128752,"INCLINATION":97.5572,"RA_OF_ASC_NODE":316.384,"ARG_OF_PERICENTER":314.1526,"MEAN_ANOMALY":45.8638,"EPHEMERIS_TYPE":0,"CLASSIFICATION_TYPE":"U","NORAD_CAT_ID":47935,"ELEMENT_SET_NO":999,"REV_AT_EPOCH":27107,"BSTAR":0.00017718433,"MEAN_MOTION_DOT":2.125e-5,"MEAN_MOTION_DDOT":0},{"OBJECT_NAME":"STARLINK-5873","OBJECT_ID":"2023-064AU","EPOCH":"2026-03-09T12:31:33.784320","MEAN_MOTION":14.98330535,"ECCENTRICITY":0.00031595,"INCLINATION":69.9993,"RA_OF_ASC_NODE":105.0315,"ARG_OF_PERICENTER":267.7061,"MEAN_ANOMALY":92.3736,"EPHEMERIS_TYPE":0,"CLASSIFICATION_TYPE":"U","NORAD_CAT_ID":56490,"ELEMENT_SET_NO":999,"REV_AT_EPOCH":15620,"BSTAR":-2.2748139e-5,"MEAN_MOTION_DOT":-3.64e-6,"MEAN_MOTION_DDOT":0}]
